{
  "norad_id": 49752,
  "name": "STARLINK-3209",
  "history": [
    {
      "epoch": "2026-03-28T14:55:11.925120Z",
      "apogee_km": 540.7019673215054,
      "perigee_km": 538.7677303525716,
      "latitude_deg": -2.654354734354325e-05,
      "longitude_deg": 4.300814674528703,
      "height_km": 540.5232967965597,
      "semi_major_axis_km": 6917.871848837039,
      "eccentricity": 0.0001398,
      "inclination_deg": 53.2186,
      "raan_deg": 54.14,
      "arg_perigee_deg": 83.6269,
      "mean_anomaly_deg": 276.4882,
      "mean_motion_rev_day": 15.08842794
    },
    {
      "epoch": "2026-03-29T03:38:17.450304Z",
      "apogee_km": 540.7227810106951,
      "perigee_km": 538.7816213008509,
      "latitude_deg": -1.6063949751764344e-05,
      "longitude_deg": 170.62688282196174,
      "height_km": 540.5581995955971,
      "semi_major_axis_km": 6917.889201155773,
      "eccentricity": 0.0001403,
      "inclination_deg": 53.2181,
      "raan_deg": 51.7614,
      "arg_perigee_deg": 84.6952,
      "mean_anomaly_deg": 275.42,
      "mean_motion_rev_day": 15.08837117
    }
  ]
}